TANAGER-1               
1 60507U 24149AR  26183.51180593  .00000446  00000+0  11461-4 0  9990
2 60507  97.2319 277.7150 0002331 253.4701 106.6292 15.44477537105404
